[
    {
        "Altitude(m)": 607886.6709044445,
        "Argument of Periapsis(deg)": 0.0,
        "Eccentricity": 0.0,
        "Inclination(deg)": 60.0,
        "Latitude(deg)": 40.998388007616654,
        "Longitude(deg)": -50.0271041604312,
        "Mean Anomaly(deg)": 49.09089999999999,
        "RAAN(deg)": 20.0,
        "Satellite Name": "Test1 91",
        "Satellite Number": 91,
        "Semi-Major Axis(m)": 6980739.136638005,
        "Time(s)": 0
    },
    {
        "Altitude(m)": 607987.5852180066,
        "Argument of Periapsis(deg)": 0.00010418945913296404,
        "Eccentricity": 0.0,
        "Inclination(deg)": 60.0,
        "Latitude(deg)": 41.4634789447589,
        "Longitude(deg)": -49.52287809726415,
        "Mean Anomaly(deg)": 49.71100614546182,
        "RAAN(deg)": 19.99957995086026,
        "Satellite Name": "Test1 91",
        "Satellite Number": 91,
        "Semi-Major Axis(m)": 6980739.136638005,
        "Time(s)": 10
    }
]